{"type": "FeatureCollection", "features": [ {"type": "Feature", "properties": {"norad_id": 31476, "name": "FENGYUN 1C DEB", "group": "fengyun-1c-debris", "lat": -61.58573945634927, "lon": 87.12647345076158, "alt_km": 859.1254599395088, "timestamp": "2025-12-22T16:55:17.746151+00:00", "meta": {"OBJECT_NAME": "FENGYUN 1C DEB", "OBJECT_ID": "1999-025BVQ", "EPOCH": "2025-12-21T17:34:49.666656", "MEAN_MOTION": 14.22156352, "ECCENTRICITY": 0.00530497, "INCLINATION": 98.8983, "RA_OF_ASC_NODE": 69.3129, "ARG_OF_PERICENTER": 147.0607, "MEAN_ANOMALY": 213.3894, "EPHEMERIS_TYPE": 0, "CLASSIFICATION_TYPE": "U", "NORAD_CAT_ID": 31476, "ELEMENT_SET_NO": 999, "REV_AT_EPOCH": 95827, "BSTAR": 0.0011792333, "MEAN_MOTION_DOT": 2.607e-05, "MEAN_MOTION_DDOT": 0}, "tle": {"line1": "1 31476U 99025BVQ 25355.73251929  .00002607  00000+0  11792-2 0  9990", "line2": "2 31476  98.8983  69.3129 0053049 147.0607 213.3894 14.22156352958276"}}, "geometry": {"type": "Point", "coordinates": [87.12647345076158, -61.58573945634927]}}, {"type": "Feature", "properties": {"norad_id": 31477, "name": "FENGYUN 1C DEB", "group": "fengyun-1c-debris", "lat": 72.51691662421021, "lon": -43.61124389320656, "alt_km": 853.5702137581266, "timestamp": "2025-12-22T16:55:17.746164+00:00", "meta": {"OBJECT_NAME": "FENGYUN 1C DEB", "OBJECT_ID": "1999-025BVR", "EPOCH": "2025-12-21T16:36:32.607648", "MEAN_MOTION": 14.02932695, "ECCENTRICITY": 0.01097377, "INCLINATION": 98.8867, "RA_OF_ASC_NODE": 345.1835, "ARG_OF_PERICENTER": 3.963, "MEAN_ANOMALY": 356.2381, "EPHEMERIS_TYPE": 0, "CLASSIFICATION_TYPE": "U", "NORAD_CAT_ID": 31477, "ELEMENT_SET_NO": 999, "REV_AT_EPOCH": 95529, "BSTAR": 0.0003679427, "MEAN_MOTION_DOT": 5.58e-06, "MEAN_MOTION_DDOT": 0}, "tle": {"line1": "1 31477U 99025BVR 25355.69204407  .00000558  00000+0  36794-3 0  9998", "line2": "2 31477  98.8867 345.1835 0109737   3.9630 356.2381 14.02932695955296"}}, "geometry": {"type": "Point", "coordinates": [-43.61124389320656, 72.51691662421021]}}, {"type": "Feature", "properties": {"norad_id": 31480, "name": "FENGYUN 1C DEB", "group": "fengyun-1c-debris", "lat": -3.994925498852906, "lon": -152.5480366662689, "alt_km": 1170.8692990861027, "timestamp": "2025-12-22T16:55:17.746175+00:00", "meta": {"OBJECT_NAME": "FENGYUN 1C DEB", "OBJECT_ID": "1999-025BVU", "EPOCH": "2025-12-21T13:18:00.633600", "MEAN_MOTION": 13.9000478, "ECCENTRICITY": 0.0344025, "INCLINATION": 98.3376, "RA_OF_ASC_NODE": 205.8309, "ARG_OF_PERICENTER": 196.8219, "MEAN_ANOMALY": 162.1301, "EPHEMERIS_TYPE": 0, "CLASSIFICATION_TYPE": "U", "NORAD_CAT_ID": 31480, "ELEMENT_SET_NO": 999, "REV_AT_EPOCH": 93518, "BSTAR": 0.0016509, "MEAN_MOTION_DOT": 3.244e-05, "MEAN_MOTION_DDOT": 0}, "tle": {"line1": "1 31480U 99025BVU 25355.55417400  .00003244  00000+0  16509-2 0  9992", "line2": "2 31480  98.3376 205.8309 0344025 196.8219 162.1301 13.90004780935187"}}, "geometry": {"type": "Point", "coordinates": [-152.5480366662689, -3.994925498852906]}}, {"type": "Feature", "properties": {"norad_id": 31482, "name": "FENGYUN 1C DEB", "group": "fengyun-1c-debris", "lat": -76.58143582271103, "lon": 142.113072751893, "alt_km": 717.1021086262645, "timestamp": "2025-12-22T16:55:17.746185+00:00", "meta": {"OBJECT_NAME": "FENGYUN 1C DEB", "OBJECT_ID": "1999-025BVW", "EPOCH": "2025-12-20T20:47:08.054880", "MEAN_MOTION": 14.35688354, "ECCENTRICITY": 0.0088742, "INCLINATION": 98.3819, "RA_OF_ASC_NODE": 358.4957, "ARG_OF_PERICENTER": 257.7601, "MEAN_ANOMALY": 222.2103, "EPHEMERIS_TYPE": 0, "CLASSIFICATION_TYPE": "U", "NORAD_CAT_ID": 31482, "ELEMENT_SET_NO": 999, "REV_AT_EPOCH": 97246, "BSTAR": 0.00047661, "MEAN_MOTION_DOT": 1.395e-05, "MEAN_MOTION_DDOT": 0}, "tle": {"line1": "1 31482U 99025BVW 25354.86606545  .00001395  00000+0  47661-3 0  9996", "line2": "2 31482  98.3819 358.4957 0088742 257.7601 222.2103 14.35688354972463"}}, "geometry": {"type": "Point", "coordinates": [142.113072751893, -76.58143582271103]}}, {"type": "Feature", "properties": {"norad_id": 31483, "name": "FENGYUN 1C DEB", "group": "fengyun-1c-debris", "lat": 48.58196544705568, "lon": 145.5213212033649, "alt_km": 798.9468845026313, "timestamp": "2025-12-22T16:55:17.746195+00:00", "meta": {"OBJECT_NAME": "FENGYUN 1C DEB", "OBJECT_ID": "1999-025BVX", "EPOCH": "2025-12-21T20:05:30.367392", "MEAN_MOTION": 14.1612276, "ECCENTRICITY": 0.01180594, "INCLINATION": 102.5048, "RA_OF_ASC_NODE": 309.7374, "ARG_OF_PERICENTER": 198.2838, "MEAN_ANOMALY": 190.1944, "EPHEMERIS_TYPE": 0, "CLASSIFICATION_TYPE": "U", "NORAD_CAT_ID": 31483, "ELEMENT_SET_NO": 999, "REV_AT_EPOCH": 94835, "BSTAR": 0.0019131565, "MEAN_MOTION_DOT": 3.975e-05, "MEAN_MOTION_DDOT": 0}, "tle": {"line1": "1 31483U 99025BVX 25355.83715703  .00003975  00000+0  19132-2 0  9999", "line2": "2 31483 102.5048 309.7374 0118059 198.2838 190.1944 14.16122760948354"}}, "geometry": {"type": "Point", "coordinates": [145.5213212033649, 48.58196544705568]}}, {"type": "Feature", "properties": {"norad_id": 31484, "name": "FENGYUN 1C DEB", "group": "fengyun-1c-debris", "lat": -49.524536948750956, "lon": -48.75726275396355, "alt_km": 788.7942103197884, "timestamp": "2025-12-22T16:55:17.746218+00:00", "meta": {"OBJECT_NAME": "FENGYUN 1C DEB", "OBJECT_ID": "1999-025BVY", "EPOCH": "2025-12-16T07:12:51.693984", "MEAN_MOTION": 14.50535761, "ECCENTRICITY": 0.008308, "INCLINATION": 101.8044, "RA_OF_ASC_NODE": 288.1065, "ARG_OF_PERICENTER": 142.1117, "MEAN_ANOMALY": 218.595, "EPHEMERIS_TYPE": 0, "CLASSIFICATION_TYPE": "U", "NORAD_CAT_ID": 31484, "ELEMENT_SET_NO": 999, "REV_AT_EPOCH": 64289, "BSTAR": 0.003456, "MEAN_MOTION_DOT": 0.00014104, "MEAN_MOTION_DDOT": 0}, "tle": {"line1": "1 31484U 99025BVY 25350.30059831  .00014104  00000+0  34560-2 0  9998", "line2": "2 31484 101.8044 288.1065 0083080 142.1117 218.5950 14.50535761642892"}}, "geometry": {"type": "Point", "coordinates": [-48.75726275396355, -49.524536948750956]}}, {"type": "Feature", "properties": {"norad_id": 31485, "name": "FENGYUN 1C DEB", "group": "fengyun-1c-debris", "lat": 44.12079386920726, "lon": 173.834426662418, "alt_km": 1195.6235065234423, "timestamp": "2025-12-22T16:55:17.746234+00:00", "meta": {"OBJECT_NAME": "FENGYUN 1C DEB", "OBJECT_ID": "1999-025BVZ", "EPOCH": "2025-12-18T17:44:13.555392", "MEAN_MOTION": 13.40072022, "ECCENTRICITY": 0.04462178, "INCLINATION": 102.7177, "RA_OF_ASC_NODE": 181.5069, "ARG_OF_PERICENTER": 305.9941, "MEAN_ANOMALY": 50.0576, "EPHEMERIS_TYPE": 0, "CLASSIFICATION_TYPE": "U", "NORAD_CAT_ID": 31485, "ELEMENT_SET_NO": 999, "REV_AT_EPOCH": 90525, "BSTAR": 0.0021234273, "MEAN_MOTION_DOT": 2.008e-05, "MEAN_MOTION_DDOT": 0}, "tle": {"line1": "1 31485U 99025BVZ 25352.73904578  .00002008  00000+0  21234-2 0  9999", "line2": "2 31485 102.7177 181.5069 0446217 305.9941  50.0576 13.40072022905258"}}, "geometry": {"type": "Point", "coordinates": [173.834426662418, 44.12079386920726]}}, {"type": "Feature", "properties": {"norad_id": 31487, "name": "FENGYUN 1C DEB", "group": "fengyun-1c-debris", "lat": 64.05012719539235, "lon": 141.72318732322876, "alt_km": 966.0589991669749, "timestamp": "2025-12-22T16:55:17.746245+00:00", "meta": {"OBJECT_NAME": "FENGYUN 1C DEB", "OBJECT_ID": "1999-025BWB", "EPOCH": "2025-12-21T18:20:46.093632", "MEAN_MOTION": 13.97768401, "ECCENTRICITY": 0.01205722, "INCLINATION": 102.4137, "RA_OF_ASC_NODE": 167.366, "ARG_OF_PERICENTER": 284.9972, "MEAN_ANOMALY": 90.2387, "EPHEMERIS_TYPE": 0, "CLASSIFICATION_TYPE": "U", "NORAD_CAT_ID": 31487, "ELEMENT_SET_NO": 999, "REV_AT_EPOCH": 94538, "BSTAR": 0.0013807923, "MEAN_MOTION_DOT": 2.004e-05, "MEAN_MOTION_DDOT": 0}, "tle": {"line1": "1 31487U 99025BWB 25355.76442238  .00002004  00000+0  13808-2 0  9991", "line2": "2 31487 102.4137 167.3660 0120572 284.9972  90.2387 13.97768401945384"}}, "geometry": {"type": "Point", "coordinates": [141.72318732322876, 64.05012719539235]}}, {"type": "Feature", "properties": {"norad_id": 31491, "name": "FENGYUN 1C DEB", "group": "fengyun-1c-debris", "lat": -62.28550226325926, "lon": 67.5831945974643, "alt_km": 804.7281315221071, "timestamp": "2025-12-22T16:55:17.746256+00:00", "meta": {"OBJECT_NAME": "FENGYUN 1C DEB", "OBJECT_ID": "1999-025BWE", "EPOCH": "2025-12-18T05:01:58.636416", "MEAN_MOTION": 14.1729953, "ECCENTRICITY": 0.00511133, "INCLINATION": 99.3072, "RA_OF_ASC_NODE": 261.0688, "ARG_OF_PERICENTER": 253.212, "MEAN_ANOMALY": 106.3442, "EPHEMERIS_TYPE": 0, "CLASSIFICATION_TYPE": "U", "NORAD_CAT_ID": 31491, "ELEMENT_SET_NO": 999, "REV_AT_EPOCH": 63805, "BSTAR": 0.0014383052, "MEAN_MOTION_DOT": 2.896e-05, "MEAN_MOTION_DDOT": 0}, "tle": {"line1": "1 31491U 99025BWE 25352.20970644  .00002896  00000+0  14383-2 0  9997", "line2": "2 31491  99.3072 261.0688 0051113 253.2120 106.3442 14.17299530638050"}}, "geometry": {"type": "Point", "coordinates": [67.5831945974643, -62.28550226325926]}}, {"type": "Feature", "properties": {"norad_id": 31492, "name": "FENGYUN 1C DEB", "group": "fengyun-1c-debris", "lat": -74.06640217985426, "lon": -49.52400304153014, "alt_km": 657.7062007305913, "timestamp": "2025-12-22T16:55:17.746266+00:00", "meta": {"OBJECT_NAME": "FENGYUN 1C DEB", "OBJECT_ID": "1999-025BWF", "EPOCH": "2025-12-17T10:03:11.000448", "MEAN_MOTION": 14.70935194, "ECCENTRICITY": 0.00645141, "INCLINATION": 98.8575, "RA_OF_ASC_NODE": 157.8403, "ARG_OF_PERICENTER": 354.4182, "MEAN_ANOMALY": 5.6296, "EPHEMERIS_TYPE": 0, "CLASSIFICATION_TYPE": "U", "NORAD_CAT_ID": 31492, "ELEMENT_SET_NO": 999, "REV_AT_EPOCH": 96575, "BSTAR": 0.0023655093, "MEAN_MOTION_DOT": 0.00014935, "MEAN_MOTION_DDOT": 0}, "tle": {"line1": "1 31492U 99025BWF 25351.41887732  .00014935  00000+0  23655-2 0  9994", "line2": "2 31492  98.8575 157.8403 0064514 354.4182   5.6296 14.70935194965751"}}, "geometry": {"type": "Point", "coordinates": [-49.52400304153014, -74.06640217985426]}}]}